STARLINK-1423           
1 45710U 20035BF  26068.26993972  .00104188  00000+0  16417-2 0  9998
2 45710  53.0523  24.0364 0007738 108.2998 251.8853 15.52734851319284
LEOPARD                 
1 67687U 98067YD  26068.59650201  .00040393  00000+0  66276-3 0  9992
2 67687  51.6320  72.2870 0007827 153.8657 206.2729 15.51994489  4690
